TISAT 1                 
1 36799U 10035E   26068.75703561  .00024554  00000+0  91005-3 0  9996
2 36799  98.0645   6.8512 0001343 159.3030 200.8262 15.27628633852505
STARLINK-31152          
1 58734U 24005G   26068.46665831 -.00003519  00000+0 -12158-3 0  9998
2 58734  42.9985 220.6599 0001346 280.6789  79.3910 15.26736091120410
